0 START 1 DEB
1 25284U 93014F   13282.85557006  .00000146  00000-0  57898-4 0  3020
2 25284 075.7632 220.3105 0188351 254.0231 164.1696 14.24926829808746
0 START 1 DEB
1 25284U 93014F   13287.22945420  .00000212  00000-0  81157-4 0  3048
2 25284 075.7636 213.2544 0188241 244.0113 281.0476 14.24929193809365
0 START 1 DEB
1 25284U 93014F   13289.33110209  .00000272  00000-0  10263-3 0  3057
2 25284 075.7635 209.8643 0188231 239.2078 261.9594 14.24930790809666
0 START 1 DEB
1 25284U 93014F   13291.50281605  .00000295  00000-0  11069-3 0  3069
2 25284 075.7632 206.3613 0188208 234.2316 242.3143 14.24932269809976
0 START 1 DEB
1 25284U 93014F   13293.80773076  .00000305  00000-0  11405-3 0  3079
2 25284 075.7629 202.6434 0188178 228.9524 185.9653 14.24934271810301
0 START 1 DEB
1 25284U 93014F   13296.21626247  .00000343  00000-0  12774-3 0  3087
2 25284 075.7628 198.7582 0188115 223.4412 301.1610 14.24936253810640
